[{"OBJECT_NAME":"APRIZESAT 6","OBJECT_ID":"2011-044F","EPOCH":"2026-03-09T16:26:10.012704","MEAN_MOTION":14.76752527,"ECCENTRICITY":0.00442555,"INCLINATION":98.2416,"RA_OF_ASC_NODE":337.1377,"ARG_OF_PERICENTER":45.5193,"MEAN_ANOMALY":11.155,"EPHEMERIS_TYPE":0,"CLASSIFICATION_TYPE":"U","NORAD_CAT_ID":37793,"ELEMENT_SET_NO":999,"REV_AT_EPOCH":78246,"BSTAR":0.0001848407,"MEAN_MOTION_DOT":1.26e-5,"MEAN_MOTION_DDOT":0},{"OBJECT_NAME":"CZ-4B DEB","OBJECT_ID":"1999-057JG","EPOCH":"2026-03-08T15:04:41.225088","MEAN_MOTION":14.57179651,"ECCENTRICITY":0.0053146,"INCLINATION":98.4518,"RA_OF_ASC_NODE":132.1097,"ARG_OF_PERICENTER":352.0415,"MEAN_ANOMALY":7.9934,"EPHEMERIS_TYPE":0,"CLASSIFICATION_TYPE":"U","NORAD_CAT_ID":26347,"ELEMENT_SET_NO":999,"REV_AT_EPOCH":36676,"BSTAR":0.00060571588,"MEAN_MOTION_DOT":2.737e-5,"MEAN_MOTION_DDOT":0}]
